*******************************************************************************
Ephemeris / WWW_USER Mon Mar 24 07:52:05 2025 Pasadena, USA      / Horizons    
*******************************************************************************
Target body name: (2018 TS1)                      {source: JPL#6}
Center body name: Earth (399)                     {source: DE441}
Center-site name: Mauna Kea
*******************************************************************************
Start time      : A.D. 2018-Oct-15 04:08:00.0000 UT      
Stop  time      : A.D. 2018-Oct-15 16:07:00.0000 UT      
Step-size       : 1 minutes
*******************************************************************************
Target pole/equ : undefined
Target radii    : undefined                                                    
Center geodetic : 204.5278, 19.8260847, 4.21024   {E-lon(deg),Lat(deg),Alt(km)}
Center cylindric: 204.5278, 6006.35451, 2151.0229 {E-lon(deg),Dxy(km),Dz(km)}
Center pole/equ : ITRF93                          {East-longitude positive}
Center radii    : 6378.137, 6378.137, 6356.752 km {Equator_a, b, pole_c}       
Target primary  : Sun
Vis. interferer : MOON (R_eq= 1737.400) km        {source: DE441}
Rel. light bend : Sun                             {source: DE441}
Rel. lght bnd GM: 1.3271E+11 km^3/s^2                                          
Small-body perts: Yes                             {source: SB441-N16}
Atmos refraction: NO (AIRLESS)
RA format       : HMS
Time format     : CAL 
Calendar mode   : Mixed Julian/Gregorian
RTS-only print  : NO       
EOP file        : eop.250321.p250617                                           
EOP coverage    : DATA-BASED 1962-JAN-20 TO 2025-MAR-21. PREDICTS-> 2025-JUN-16
Units conversion: 1 au= 149597870.700 km, c= 299792.458 km/s, 1 day= 86400.0 s 
Table cut-offs 1: Elevation (-90.0deg=NO ),Airmass (>38.000=NO), Daylight (YES)
Table cut-offs 2: Solar elongation (  0.0,180.0=NO ),Local Hour Angle( 0.0=NO )
Table cut-offs 3: RA/DEC angular rate (     0.0=NO )                           
*******************************************************************************
Initial IAU76/J2000 heliocentric ecliptic osculating elements (au, days, deg.):
  EPOCH=  2458397.5 ! 2018-Oct-06.00 (TDB)         Residual RMS= .30565        
   EC= .4232280089037878   QR= .7951431742456924   TP= 2458457.9340165281      
   OM= 356.454891650426    W=  97.01949783285009   IN= 2.243887958983723       
  Equivalent ICRF heliocentric cartesian coordinates (au, au/d):
   X= 1.037748414669454E+00  Y= 2.036665248544260E-01  Z= 1.007134111375925E-01
  VX=-1.028941390482545E-02 VY= 1.387292408111162E-02 VZ= 6.642652492995660E-03
Asteroid physical parameters (km, seconds, rotational period in hours):        
   GM= n.a.                RAD= n.a.               ROTPER= n.a.                
   H= 25.7                 G= .150                 B-V= n.a.                   
                           ALBEDO= n.a.            STYP= n.a.                  
*******************************************************************************
 Date__(UT)__HR:MN     R.A._________(ICRF)_________DEC
******************************************************
$$SOE
 2018-Oct-15 14:23     18 51 50.635277 +61 36 18.52340
 2018-Oct-15 14:24     18 51 43.435559 +61 36 17.76781
 2018-Oct-15 14:25     18 51 36.236367 +61 36 16.99639
 2018-Oct-15 14:26     18 51 29.037695 +61 36 16.20916
 2018-Oct-15 14:27     18 51 21.839540 +61 36 15.40614
 2018-Oct-15 14:28     18 51 14.641899 +61 36 14.58733
 2018-Oct-15 14:29     18 51 07.444768 +61 36 13.75276
 2018-Oct-15 14:30     18 51 00.248144 +61 36 12.90245
 2018-Oct-15 14:31     18 50 53.052023 +61 36 12.03639
 2018-Oct-15 14:32     18 50 45.856402 +61 36 11.15462
 2018-Oct-15 14:33     18 50 38.661277 +61 36 10.25715
 2018-Oct-15 14:34     18 50 31.466644 +61 36 09.34398
 2018-Oct-15 14:35     18 50 24.272500 +61 36 08.41514
 2018-Oct-15 14:36     18 50 17.078841 +61 36 07.47064
 2018-Oct-15 14:37     18 50 09.885664 +61 36 06.51049
 2018-Oct-15 14:38     18 50 02.692965 +61 36 05.53471
 2018-Oct-15 14:39     18 49 55.500740 +61 36 04.54331
 2018-Oct-15 14:40     18 49 48.308986 +61 36 03.53630
 2018-Oct-15 14:41     18 49 41.117699 +61 36 02.51369
 2018-Oct-15 14:42     18 49 33.926876 +61 36 01.47551
 2018-Oct-15 14:43     18 49 26.736512 +61 36 00.42175
 2018-Oct-15 14:44     18 49 19.546604 +61 35 59.35244
 2018-Oct-15 14:45     18 49 12.357149 +61 35 58.26758
 2018-Oct-15 14:46     18 49 05.168142 +61 35 57.16719
 2018-Oct-15 14:47     18 48 57.979580 +61 35 56.05128
 2018-Oct-15 14:48     18 48 50.791459 +61 35 54.91986
 2018-Oct-15 14:49     18 48 43.603776 +61 35 53.77294
 2018-Oct-15 14:50     18 48 36.416526 +61 35 52.61054
 2018-Oct-15 14:51     18 48 29.229707 +61 35 51.43265
 2018-Oct-15 14:52     18 48 22.043313 +61 35 50.23930
 2018-Oct-15 14:53     18 48 14.857342 +61 35 49.03050
 2018-Oct-15 14:54     18 48 07.671790 +61 35 47.80625
 2018-Oct-15 14:55     18 48 00.486652 +61 35 46.56656
 2018-Oct-15 14:56     18 47 53.301926 +61 35 45.31145
 2018-Oct-15 14:57     18 47 46.117607 +61 35 44.04092
 2018-Oct-15 14:58     18 47 38.933691 +61 35 42.75499
 2018-Oct-15 14:59     18 47 31.750175 +61 35 41.45365
 2018-Oct-15 15:00     18 47 24.567055 +61 35 40.13693
 2018-Oct-15 15:01     18 47 17.384327 +61 35 38.80483
 2018-Oct-15 15:02     18 47 10.201987 +61 35 37.45735
 2018-Oct-15 15:03     18 47 03.020032 +61 35 36.09451
 2018-Oct-15 15:04 A   18 46 55.838457 +61 35 34.71631
 2018-Oct-15 15:05 A   18 46 48.657259 +61 35 33.32277
 2018-Oct-15 15:06 A   18 46 41.476434 +61 35 31.91388
 2018-Oct-15 15:07 A   18 46 34.295977 +61 35 30.48966
 2018-Oct-15 15:08 A   18 46 27.115886 +61 35 29.05011
 2018-Oct-15 15:09 A   18 46 19.936156 +61 35 27.59524
 2018-Oct-15 15:10 A   18 46 12.756784 +61 35 26.12506
 2018-Oct-15 15:11 A   18 46 05.577764 +61 35 24.63957
 2018-Oct-15 15:12 A   18 45 58.399095 +61 35 23.13878
 2018-Oct-15 15:13 A   18 45 51.220771 +61 35 21.62269
 2018-Oct-15 15:14 A   18 45 44.042790 +61 35 20.09132
 2018-Oct-15 15:15 A   18 45 36.865146 +61 35 18.54466
 2018-Oct-15 15:16 A   18 45 29.687836 +61 35 16.98272
 2018-Oct-15 15:17 A   18 45 22.510857 +61 35 15.40551
 2018-Oct-15 15:18 A   18 45 15.334204 +61 35 13.81303
 2018-Oct-15 15:19 A   18 45 08.157873 +61 35 12.20529
 2018-Oct-15 15:20 A   18 45 00.981861 +61 35 10.58228
 2018-Oct-15 15:21 A   18 44 53.806163 +61 35 08.94402
 2018-Oct-15 15:22 A   18 44 46.630776 +61 35 07.29051
 2018-Oct-15 15:23 A   18 44 39.455696 +61 35 05.62175
 2018-Oct-15 15:24 A   18 44 32.280918 +61 35 03.93774
 2018-Oct-15 15:25 A   18 44 25.106440 +61 35 02.23849
 2018-Oct-15 15:26 A   18 44 17.932257 +61 35 00.52401
 2018-Oct-15 15:27 A   18 44 10.758364 +61 34 58.79429
 2018-Oct-15 15:28 A   18 44 03.584759 +61 34 57.04933
 2018-Oct-15 15:29 N   18 43 56.411437 +61 34 55.28915
 2018-Oct-15 15:30 N   18 43 49.238395 +61 34 53.51373
 2018-Oct-15 15:31 N   18 43 42.065628 +61 34 51.72309
 2018-Oct-15 15:32 N   18 43 34.893133 +61 34 49.91723
 2018-Oct-15 15:33 N   18 43 27.720905 +61 34 48.09614
 2018-Oct-15 15:34 N   18 43 20.548940 +61 34 46.25982
 2018-Oct-15 15:35 N   18 43 13.377236 +61 34 44.40829
 2018-Oct-15 15:36 N   18 43 06.205787 +61 34 42.54153
 2018-Oct-15 15:37 N   18 42 59.034591 +61 34 40.65956
 2018-Oct-15 15:38 N   18 42 51.863642 +61 34 38.76236
 2018-Oct-15 15:39 N   18 42 44.692937 +61 34 36.84995
 2018-Oct-15 15:40 N   18 42 37.522473 +61 34 34.92232
 2018-Oct-15 15:41 N   18 42 30.352245 +61 34 32.97946
 2018-Oct-15 15:42 N   18 42 23.182249 +61 34 31.02138
 2018-Oct-15 15:43 N   18 42 16.012482 +61 34 29.04809
 2018-Oct-15 15:44 N   18 42 08.842939 +61 34 27.05957
 2018-Oct-15 15:45 N   18 42 01.673617 +61 34 25.05582
 2018-Oct-15 15:46 N   18 41 54.504512 +61 34 23.03685
 2018-Oct-15 15:47 N   18 41 47.335619 +61 34 21.00266
 2018-Oct-15 15:48 N   18 41 40.166936 +61 34 18.95323
 2018-Oct-15 15:49 N   18 41 32.998457 +61 34 16.88858
 2018-Oct-15 15:50 N   18 41 25.830180 +61 34 14.80869
 2018-Oct-15 15:51 N   18 41 18.662100 +61 34 12.71356
 2018-Oct-15 15:52 N   18 41 11.494213 +61 34 10.60320
 2018-Oct-15 15:53 N   18 41 04.326516 +61 34 08.47759
 2018-Oct-15 15:54 N   18 40 57.159005 +61 34 06.33674
 2018-Oct-15 15:55 C   18 40 49.991675 +61 34 04.18064
 2018-Oct-15 15:56 C   18 40 42.824523 +61 34 02.00929
 2018-Oct-15 15:57 C   18 40 35.657545 +61 33 59.82268
 2018-Oct-15 15:58 C   18 40 28.490738 +61 33 57.62081
 2018-Oct-15 15:59 C   18 40 21.324097 +61 33 55.40368
 2018-Oct-15 16:00 C   18 40 14.157618 +61 33 53.17127
 2018-Oct-15 16:01 C   18 40 06.991298 +61 33 50.92360
 2018-Oct-15 16:02 C   18 39 59.825133 +61 33 48.66064
 2018-Oct-15 16:03 C   18 39 52.659119 +61 33 46.38240
 2018-Oct-15 16:04 C   18 39 45.493252 +61 33 44.08887
 2018-Oct-15 16:05 C   18 39 38.327528 +61 33 41.78005
 2018-Oct-15 16:06 C   18 39 31.161944 +61 33 39.45592
 2018-Oct-15 16:07 C   18 39 23.996496 +61 33 37.11649
